SL-16 R/B               
1 25400U 98043G   26038.49110752  .00000117  00000+0  67736-4 0  9994
2 25400  98.8206 351.6504 0010894 100.8784 259.3622 14.26042483434688
SL-16 R/B               
1 25407U 98045B   26037.98902717 -.00000104  00000+0 -28613-4 0  9995
2 25407  71.0084 246.1368 0005298  65.3371 294.8304 14.16185255422757
ISS (ZARYA)             
1 25544U 98067A   26038.43830129  .00013256  00000+0  25259-3 0  9991
2 25544  51.6316 221.8995 0011120  73.2114 287.0093 15.48462308551644
CZ-4B R/B               
1 25732U 99025C   26038.10967657  .00000066  00000+0  52420-4 0  9992
2 25732  98.6688  83.1071 0038123  73.5070 305.5811 14.18259191383834
OKEAN-O                 
1 25860U 99039A   26038.16682435  .00001024  00000+0  14129-3 0  9991
2 25860  97.9510  98.3582 0001890  88.0837 272.0592 14.80285300429879
SL-16 R/B               
1 25861U 99039B   26038.17554825  .00000806  00000+0  10905-3 0  9999
2 25861  98.0032  97.3070 0014758   1.9945 358.1324 14.81688141432349
DELTA 2 R/B             
1 25876U 99041E   26038.42524995  .00002603  00000+0  45605-3 0  9993
2 25876  51.7648  62.1362 0502324 259.0175  95.3879 14.11715206358753
HELIOS 1B               
1 25977U 99064A   26038.31148088  .00002477  00000+0  27915-3 0  9996
2 25977  98.1724 299.6583 0002010 117.6313 242.5107 14.87571823680742
TERRA                   
1 25994U 99068A   26038.44290574  .00000625  00000+0  13656-3 0  9991
2 25994  97.9658  93.0232 0000939 282.2008 133.9727 14.60981655390668
SL-16 R/B               
1 26070U 00006B   26038.49100435 -.00000036  00000+0  61311-5 0  9992
2 26070  71.0030 161.3329 0018421 232.7462 127.1981 14.15820786344287
TITAN 4B R/B            
1 26474U 00047B   26038.48009207  .00004782  00000+0  30267-3 0  9994
2 26474  67.9892 125.4426 0037022  72.5225 287.9965 15.09312019388351
ENVISAT                 
1 27386U 02009A   26038.51538943  .00000204  00000+0  79803-4 0  9990
2 27386  98.3678 352.8412 0001284  91.0506  24.4608 14.39025564254835
